DUBAISAT-1              
1 35682U 09041B   26173.65127511  .00000587  00000+0  94521-4 0  9999
2 35682  98.0058 306.8492 0011471  58.1036 302.1287 14.75129766905909
OCEANSAT-2              
1 35931U 09051A   26173.84692898 -.00000214  00000+0 -12036-3 0  9992
2 35931  98.2322 160.1338 0015665 218.9782 141.0256 13.99662786880126
WORLDVIEW-2 (WV-2)      
1 35946U 09055A   26173.80026667  .00000060  00000+0  34233-4 0  9994
2 35946  98.4735 247.1725 0004060 189.8158 170.2950 14.37900760876454
SMOS                    
1 36036U 09059A   26173.74917274  .00000169  00000+0  67869-4 0  9996
2 36036  98.4427   1.0025 0001316  88.1244 272.0095 14.39774975874257
YAOGAN-7                
1 36110U 09069A   26173.23393612  .00000342  00000+0  54479-4 0  9994
2 36110  98.0067  59.0697 0025248  26.0509 334.1966 14.78014010890377
TANDEM-X                
1 36605U 10030A   26173.52705408  .00000228  00000+0  14048-4 0  9996
2 36605  97.4451 181.1585 0001911  89.6442 270.5012 15.19152974887459
CARTOSAT-2B             
1 36795U 10035A   26173.82093703  .00000067  00000+0  16261-4 0  9992
2 36795  97.9947 224.3352 0011657 165.6018 194.5527 14.78665278860680
YAOGAN-10               
1 36834U 10038A   26173.88663488  .00000545  00000+0  69674-4 0  9995
2 36834  97.8977 197.2454 0001653  85.4798  37.2492 14.85360682858057
COSMO-SKYMED 4          
1 37216U 10060A   26173.84459596 -.00000079  00000+0 -33938-5 0  9993
2 37216  97.8895 357.3622 0001417  86.1399 273.9976 14.82155833845408
RESOURCESAT-2           
1 37387U 11015A   26173.79002018  .00000062  00000+0  48581-4 0  9999
2 37387  98.7641 241.1932 0010355 237.6406 122.3769 14.21600928786979
HAIYANG-2A              
1 37781U 11043A   26173.78966309 -.00000259  00000+0 -22820-3 0  9996
2 37781  99.3398 176.3416 0005576  80.1172 280.0606 13.74277360747425
RASAT                   
1 37791U 11044D   26173.84873851  .00000400  00000+0  77826-4 0  9997
2 37791  98.0571 265.1596 0020657 170.6993 327.8406 14.68170672794011
SRMSAT                  
1 37841U 11058D   26172.95148441  .00000351  00000+0  46373-4 0  9997
2 37841  19.9733  30.6303 0011714 256.2995 137.7067 14.11576407758494
PLEIADES 1A             
1 38012U 11076F   26173.83401549  .00000213  00000+0  55650-4 0  9992
2 38012  98.1969 248.8615 0001712  91.9550  45.5211 14.58533906772819
ZIYUAN 1-02C (ZY 1-02C) 
1 38038U 11079A   26173.86396211  .00000190  00000+0  76878-4 0  9994
2 38038  98.4066 241.0540 0005261 296.6794 197.7261 14.38218256760028
ARIRANG-3 (KOMPSAT-3)   
1 38338U 12025B   26173.84930289  .00000300  00000+0  68769-4 0  9999
2 38338  98.1173 131.2116 0006791  95.1803 265.0174 14.62210148752176
EXACTVIEW-1 (ADS-1B)    
1 38709U 12039C   26173.57719939  .00000072  00000+0  50601-4 0  9995
2 38709  98.9783 291.0892 0011435 151.4971 208.6835 14.24985887723477
SPOT 6                  
1 38755U 12047A   26173.82312689  .00000027  00000+0  15577-4 0  9997
2 38755  98.2112 241.0667 0001565  90.5227 269.6152 14.58564957733874
PLEIADES 1B             
1 39019U 12068A   26173.84205565  .00000082  00000+0  27485-4 0  9992
2 39019  98.1941 248.8162 0001688  88.0892 272.0500 14.58562902721676
GOKTURK 2               
1 39030U 12073A   26173.84489137  .00000483  00000+0  77806-4 0  9997
2 39030  97.6824  10.9924 0001373  58.0474 302.0869 14.75547613725342
LANDSAT 8               
1 39084U 13008A   26173.79303528  .00000220  00000+0  58939-4 0  9993
2 39084  98.2300 243.8617 0001355  93.6583 266.4770 14.57097598698715
SARAL                   
1 39086U 13009A   26173.83685722  .00000060  00000+0  37873-4 0  9996
2 39086  98.5559   0.3324 0000607 262.5997  97.5118 14.32857071696419
GAOFEN-1                
1 39150U 13018A   26173.82321042  .00000235  00000+0  40985-4 0  9991
2 39150  97.9088 245.7769 0015757 246.5803 113.3751 14.76540583709071
VNREDSAT 1              
1 39160U 13021B   26173.82680065  .00000346  00000+0  73329-4 0  9990
2 39160  97.9075 227.0269 0001728  86.8523 273.2879 14.64861367701110
ARIRANG-5 (KOMPSAT-5)   
1 39227U 13042A   26173.81938432  .00000418  00000+0  34163-4 0  9993
2 39227  97.6201   0.4409 0005302 108.1574 252.0230 15.04497153704704
SKYSAT-A                
1 39418U 13066C   26173.08528877  .00002403  00000+0  13916-3 0  9996
2 39418  97.3812 222.3265 0019819 299.2439  60.6811 15.12996158689221
DUBAISAT-2              
1 39419U 13066D   26173.83526543  .00003124  00000+0  19472-3 0  9992
2 39419  97.4576 163.8305 0011784  23.3815 336.7949 15.10218735687246
GPM-CORE                
1 39574U 14009C   26173.84229669  .00009019  00000+0  19711-3 0  9997
2 39574  64.9717 289.1860 0011603 253.7419 106.2445 15.44676753698687
SENTINEL-1A             
1 39634U 14016A   26173.85320494 -.00000053  00000+0 -15224-5 0  9999
2 39634  98.1783 181.3033 0001394  82.1684 277.9674 14.59200040650848
KAZEOSAT 1              
1 39731U 14024A   26173.84999824  .00000043  00000+0  25967-4 0  9995
2 39731  98.3200 246.1569 0001282  75.6276 284.5056 14.42081708639379
