OBJECT_NAME,OBJECT_ID,EPOCH,MEAN_MOTION,ECCENTRICITY,INCLINATION,RA_OF_ASC_NODE,ARG_OF_PERICENTER,MEAN_ANOMALY,EPHEMERIS_TYPE,CLASSIFICATION_TYPE,NORAD_CAT_ID,ELEMENT_SET_NO,REV_AT_EPOCH,BSTAR,MEAN_MOTION_DOT,MEAN_MOTION_DDOT
DUBAISAT-1,2009-041B,2026-06-22T15:37:50.169504,14.75129766,.00114716,98.0058,306.8492,58.1036,302.1287,0,U,35682,999,90590,.94521177E-4,.587E-5,0
OCEANSAT-2,2009-051A,2026-06-22T20:19:34.663872,13.99662786,.00156654,98.2322,160.1338,218.9782,141.0256,0,U,35931,999,88012,-.1203635E-3,-.214E-5,0
WORLDVIEW-2 (WV-2),2009-055A,2026-06-22T19:12:23.040288,14.37900760,.00040606,98.4735,247.1725,189.8158,170.2950,0,U,35946,999,87645,.34233338E-4,.6E-6,0
SMOS,2009-059A,2026-06-22T17:58:48.524736,14.39774975,.00013165,98.4427,1.0025,88.1244,272.0095,0,U,36036,999,87425,.67868752E-4,.169E-5,0
YAOGAN-7,2009-069A,2026-06-22T05:36:52.080768,14.78014010,.00252482,98.0067,59.0697,26.0509,334.1966,0,U,36110,999,89037,.54479465E-4,.342E-5,0
TANDEM-X,2010-030A,2026-06-22T12:38:57.472512,15.19152974,.00019111,97.4451,181.1585,89.6442,270.5012,0,U,36605,999,88745,.14048158E-4,.228E-5,0
CARTOSAT-2B,2010-035A,2026-06-22T19:42:08.959392,14.78665278,.00116575,97.9947,224.3352,165.6018,194.5527,0,U,36795,999,86068,.16261106E-4,.67E-6,0
YAOGAN-10,2010-038A,2026-06-22T21:16:45.253632,14.85360682,.00016537,97.8977,197.2454,85.4798,37.2492,0,U,36834,999,85805,.69674459E-4,.545E-5,0
COSMO-SKYMED 4,2010-060A,2026-06-22T20:16:13.090944,14.82155833,.00014178,97.8895,357.3622,86.1399,273.9976,0,U,37216,999,84540,-.339379E-5,-.79E-6,0
RESOURCESAT-2,2011-015A,2026-06-22T18:57:37.743552,14.21600928,.00103554,98.7641,241.1932,237.6406,122.3769,0,U,37387,999,78697,.48580871E-4,.62E-6,0
HAIYANG-2A,2011-043A,2026-06-22T18:57:06.890976,13.74277360,.00055764,99.3398,176.3416,80.1172,280.0606,0,U,37781,999,74742,-.22820005E-3,-.259E-5,0
RASAT,2011-044D,2026-06-22T20:22:11.007264,14.68170672,.00206571,98.0571,265.1596,170.6993,327.8406,0,U,37791,999,79401,.77825861E-4,.4E-5,0
SRMSAT,2011-058D,2026-06-21T22:50:08.253024,14.11576407,.00117146,19.9733,30.6303,256.2995,137.7067,0,U,37841,999,75849,.46372796E-4,.351E-5,0
PLEIADES 1A,2011-076F,2026-06-22T20:00:58.938336,14.58533906,.00017128,98.1969,248.8615,91.9550,45.5211,0,U,38012,999,77281,.55650403E-4,.213E-5,0
ZIYUAN 1-02C (ZY 1-02C),2011-079A,2026-06-22T20:44:06.326304,14.38218256,.00052611,98.4066,241.0540,296.6794,197.7261,0,U,38038,999,76002,.76877853E-4,.19E-5,0
ARIRANG-3 (KOMPSAT-3),2012-025B,2026-06-22T20:22:59.769696,14.62210148,.00067914,98.1173,131.2116,95.1803,265.0174,0,U,38338,999,75217,.68769239E-4,.3E-5,0
EXACTVIEW-1 (ADS-1B),2012-039C,2026-06-22T13:51:10.027296,14.24985887,.00114358,98.9783,291.0892,151.4971,208.6835,0,U,38709,999,72347,.50600941E-4,.72E-6,0
SPOT 6,2012-047A,2026-06-22T19:45:18.163296,14.58564957,.0001565,98.2112,241.0667,90.5227,269.6152,0,U,38755,999,73387,.15576955E-4,.27E-6,0
PLEIADES 1B,2012-068A,2026-06-22T20:12:33.608160,14.58562902,.00016885,98.1941,248.8162,88.0892,272.0500,0,U,39019,999,72167,.27485163E-4,.82E-6,0
GOKTURK 2,2012-073A,2026-06-22T20:16:38.614368,14.75547613,.00013735,97.6824,10.9924,58.0474,302.0869,0,U,39030,999,72534,.77806013E-4,.483E-5,0
LANDSAT 8,2013-008A,2026-06-22T19:01:58.248192,14.57097598,.00013557,98.2300,243.8617,93.6583,266.4770,0,U,39084,999,69871,.58938827E-4,.22E-5,0
SARAL,2013-009A,2026-06-22T20:05:04.463808,14.32857071,.00006071,98.5559,0.3324,262.5997,97.5118,0,U,39086,999,69641,.37872501E-4,.6E-6,0
GAOFEN-1,2013-018A,2026-06-22T19:45:25.380288,14.76540583,.00157571,97.9088,245.7769,246.5803,113.3751,0,U,39150,999,70907,.4098495E-4,.235E-5,0
VNREDSAT 1,2013-021B,2026-06-22T19:50:35.576160,14.64861367,.00017284,97.9075,227.0269,86.8523,273.2879,0,U,39160,999,70111,.73328754E-4,.346E-5,0
ARIRANG-5 (KOMPSAT-5),2013-042A,2026-06-22T19:39:54.805248,15.04497153,.0005302,97.6201,0.4409,108.1574,252.0230,0,U,39227,999,70470,.34162554E-4,.418E-5,0
SKYSAT-A,2013-066C,2026-06-22T02:02:48.949728,15.12996158,.00198194,97.3812,222.3265,299.2439,60.6811,0,U,39418,999,68922,.13915702E-3,.2403E-4,0
DUBAISAT-2,2013-066D,2026-06-22T20:02:46.933152,15.10218735,.00117841,97.4576,163.8305,23.3815,336.7949,0,U,39419,999,68724,.19471501E-3,.3124E-4,0
GPM-CORE,2014-009C,2026-06-22T20:12:54.434016,15.44676753,.00116037,64.9717,289.1860,253.7419,106.2445,0,U,39574,999,69868,.19711423E-3,.9019E-4,0
SENTINEL-1A,2014-016A,2026-06-22T20:28:36.906816,14.59200040,.00013945,98.1783,181.3033,82.1684,277.9674,0,U,39634,999,65084,-.152245E-5,-.53E-6,0
KAZEOSAT 1,2014-024A,2026-06-22T20:23:59.847936,14.42081708,.00012824,98.3200,246.1569,75.6276,284.5056,0,U,39731,999,63937,.25967031E-4,.43E-6,0
